{
  "type": "FeatureCollection",
  "features": [
    {
      "type": "Feature",
      "properties": {
        "norad_id": 34366,
        "name": "IRIDIUM 33 DEB",
        "group": "iridium-33-debris",
        "lat": 4.371836625204736,
        "lon": -136.42501682345286,
        "alt_km": 710.3441888732978,
        "timestamp": "2025-12-25T07:00:34.433578+00:00",
        "meta_object_name": "IRIDIUM 33 DEB",
        "meta_object_id": "1997-051FJ",
        "meta_epoch": "2025-12-24T14:23:48.658272",
        "meta_mean_motion": 14.54144836,
        "meta_eccentricity": 0.0023037,
        "meta_inclination": 86.3684,
        "meta_ra_of_asc_node": 44.1543,
        "meta_arg_of_pericenter": 102.8628,
        "meta_mean_anomaly": 51.1135,
        "meta_ephemeris_type": 0,
        "meta_classification_type": "U",
        "meta_norad_cat_id": 34366,
        "meta_element_set_no": 999,
        "meta_rev_at_epoch": 88354,
        "meta_bstar": 0.00090360527,
        "meta_mean_motion_dot": 3.853e-05,
        "meta_mean_motion_ddot": 0,
        "tle_line1": "1 34366U 97051FJ  25358.59986873  .00003853  00000+0  90361-3 0  9992",
        "tle_line2": "2 34366  86.3684  44.1543 0023037 102.8628  51.1135 14.54144836883546"
      },
      "geometry": {
        "type": "Point",
        "coordinates": [
          -136.42501682345286,
          4.371836625204736
        ]
      }
    },
    {
      "type": "Feature",
      "properties": {
        "norad_id": 34375,
        "name": "IRIDIUM 33 DEB",
        "group": "iridium-33-debris",
        "lat": -80.78088412689607,
        "lon": 20.2464167162703,
        "alt_km": 913.8887808774261,
        "timestamp": "2025-12-25T07:00:34.433588+00:00",
        "meta_object_name": "IRIDIUM 33 DEB",
        "meta_object_id": "1997-051FT",
        "meta_epoch": "2025-12-24T13:09:42.393312",
        "meta_mean_motion": 14.18013041,
        "meta_eccentricity": 0.01036939,
        "meta_inclination": 86.4324,
        "meta_ra_of_asc_node": 177.9413,
        "meta_arg_of_pericenter": 89.8064,
        "meta_mean_anomaly": 337.6478,
        "meta_ephemeris_type": 0,
        "meta_classification_type": "U",
        "meta_norad_cat_id": 34375,
        "meta_element_set_no": 999,
        "meta_rev_at_epoch": 86879,
        "meta_bstar": 0.00038925605,
        "meta_mean_motion_dot": 8.6e-06,
        "meta_mean_motion_ddot": 0,
        "tle_line1": "1 34375U 97051FT  25358.54840733  .00000860  00000+0  38926-3 0  9995",
        "tle_line2": "2 34375  86.4324 177.9413 0103693  89.8064 337.6478 14.18013041868799"
      },
      "geometry": {
        "type": "Point",
        "coordinates": [
          20.2464167162703,
          -80.78088412689607
        ]
      }
    },
    {
      "type": "Feature",
      "properties": {
        "norad_id": 34376,
        "name": "IRIDIUM 33 DEB",
        "group": "iridium-33-debris",
        "lat": 51.42638805460178,
        "lon": 176.23945565659497,
        "alt_km": 659.6316689336791,
        "timestamp": "2025-12-25T07:00:34.433599+00:00",
        "meta_object_name": "IRIDIUM 33 DEB",
        "meta_object_id": "1997-051FU",
        "meta_epoch": "2025-12-24T17:17:28.891392",
        "meta_mean_motion": 14.62726881,
        "meta_eccentricity": 0.00284367,
        "meta_inclination": 86.2983,
        "meta_ra_of_asc_node": 1.1525,
        "meta_arg_of_pericenter": 127.427,
        "meta_mean_anomaly": 232.9536,
        "meta_ephemeris_type": 0,
        "meta_classification_type": "U",
        "meta_norad_cat_id": 34376,
        "meta_element_set_no": 999,
        "meta_rev_at_epoch": 88182,
        "meta_bstar": 0.001533236,
        "meta_mean_motion_dot": 7.879e-05,
        "meta_mean_motion_ddot": 0,
        "tle_line1": "1 34376U 97051FU  25358.72047328  .00007879  00000+0  15332-2 0  9997",
        "tle_line2": "2 34376  86.2983   1.1525 0028436 127.4270 232.9536 14.62726881881823"
      },
      "geometry": {
        "type": "Point",
        "coordinates": [
          176.23945565659497,
          51.42638805460178
        ]
      }
    },
    {
      "type": "Feature",
      "properties": {
        "norad_id": 34486,
        "name": "IRIDIUM 33 DEB",
        "group": "iridium-33-debris",
        "lat": 52.5639138005355,
        "lon": 10.954898216472502,
        "alt_km": 564.4804010094049,
        "timestamp": "2025-12-25T07:00:34.433609+00:00",
        "meta_object_name": "IRIDIUM 33 DEB",
        "meta_object_id": "1997-051GB",
        "meta_epoch": "2025-12-24T00:31:38.959680",
        "meta_mean_motion": 14.96285435,
        "meta_eccentricity": 0.00139233,
        "meta_inclination": 86.3926,
        "meta_ra_of_asc_node": 6.8146,
        "meta_arg_of_pericenter": 80.2681,
        "meta_mean_anomaly": 335.5299,
        "meta_ephemeris_type": 0,
        "meta_classification_type": "U",
        "meta_norad_cat_id": 34486,
        "meta_element_set_no": 999,
        "meta_rev_at_epoch": 89155,
        "meta_bstar": 0.0020880938,
        "meta_mean_motion_dot": 0.00023707,
        "meta_mean_motion_ddot": 0,
        "tle_line1": "1 34486U 97051GB  25358.02197870  .00023707  00000+0  20881-2 0  9993",
        "tle_line2": "2 34486  86.3926   6.8146 0013923  80.2681 335.5299 14.96285435891550"
      },
      "geometry": {
        "type": "Point",
        "coordinates": [
          10.954898216472502,
          52.5639138005355
        ]
      }
    },
    {
      "type": "Feature",
      "properties": {
        "norad_id": 34487,
        "name": "IRIDIUM 33 DEB",
        "group": "iridium-33-debris",
        "lat": -24.09386183952473,
        "lon": -171.3885143569259,
        "alt_km": 763.3721794667208,
        "timestamp": "2025-12-25T07:00:34.433620+00:00",
        "meta_object_name": "IRIDIUM 33 DEB",
        "meta_object_id": "1997-051GC",
        "meta_epoch": "2025-12-24T00:25:07.192704",
        "meta_mean_motion": 14.43230021,
        "meta_eccentricity": 0.00332562,
        "meta_inclination": 86.3429,
        "meta_ra_of_asc_node": 7.5212,
        "meta_arg_of_pericenter": 93.3155,
        "meta_mean_anomaly": 332.1294,
        "meta_ephemeris_type": 0,
        "meta_classification_type": "U",
        "meta_norad_cat_id": 34487,
        "meta_element_set_no": 999,
        "meta_rev_at_epoch": 88411,
        "meta_bstar": 0.00017640846,
        "meta_mean_motion_dot": 6.17e-06,
        "meta_mean_motion_ddot": 0,
        "tle_line1": "1 34487U 97051GC  25358.01744436  .00000617  00000+0  17641-3 0  9995",
        "tle_line2": "2 34487  86.3429   7.5212 0033256  93.3155 332.1294 14.43230021884118"
      },
      "geometry": {
        "type": "Point",
        "coordinates": [
          -171.3885143569259,
          -24.09386183952473
        ]
      }
    },
    {
      "type": "Feature",
      "properties": {
        "norad_id": 34488,
        "name": "IRIDIUM 33 DEB",
        "group": "iridium-33-debris",
        "lat": 9.53663056925167,
        "lon": 118.96357892624056,
        "alt_km": 474.7272827019988,
        "timestamp": "2025-12-25T07:00:34.433630+00:00",
        "meta_object_name": "IRIDIUM 33 DEB",
        "meta_object_id": "1997-051GD",
        "meta_epoch": "2025-12-24T20:52:00.225984",
        "meta_mean_motion": 15.32501741,
        "meta_eccentricity": 0.00092779,
        "meta_inclination": 86.3252,
        "meta_ra_of_asc_node": 299.7925,
        "meta_arg_of_pericenter": 31.7639,
        "meta_mean_anomaly": 328.4169,
        "meta_ephemeris_type": 0,
        "meta_classification_type": "U",
        "meta_norad_cat_id": 34488,
        "meta_element_set_no": 999,
        "meta_rev_at_epoch": 89425,
        "meta_bstar": 0.0047265493,
        "meta_mean_motion_dot": 0.0015116,
        "meta_mean_motion_ddot": 0,
        "tle_line1": "1 34488U 97051GD  25358.86944706  .00151160  00000+0  47265-2 0  9995",
        "tle_line2": "2 34488  86.3252 299.7925 0009277  31.7639 328.4169 15.32501741894252"
      },
      "geometry": {
        "type": "Point",
        "coordinates": [
          118.96357892624056,
          9.53663056925167
        ]
      }
    },
    {
      "type": "Feature",
      "properties": {
        "norad_id": 34492,
        "name": "IRIDIUM 33 DEB",
        "group": "iridium-33-debris",
        "lat": -50.10044019347459,
        "lon": 153.78417244931626,
        "alt_km": 697.5202800246088,
        "timestamp": "2025-12-25T07:00:34.433640+00:00",
        "meta_object_name": "IRIDIUM 33 DEB",
        "meta_object_id": "1997-051GH",
        "meta_epoch": "2025-12-24T21:39:21.521088",
        "meta_mean_motion": 14.25932668,
        "meta_eccentricity": 0.01887861,
        "meta_inclination": 86.473,
        "meta_ra_of_asc_node": 329.7114,
        "meta_arg_of_pericenter": 198.6425,
        "meta_mean_anomaly": 190.963,
        "meta_ephemeris_type": 0,
        "meta_classification_type": "U",
        "meta_norad_cat_id": 34492,
        "meta_element_set_no": 999,
        "meta_rev_at_epoch": 85232,
        "meta_bstar": 0.0029502111,
        "meta_mean_motion_dot": 8.501e-05,
        "meta_mean_motion_ddot": 0,
        "tle_line1": "1 34492U 97051GH  25358.90233242  .00008501  00000+0  29502-2 0  9995",
        "tle_line2": "2 34492  86.4730 329.7114 0188786 198.6425 190.9630 14.25932668852326"
      },
      "geometry": {
        "type": "Point",
        "coordinates": [
          153.78417244931626,
          -50.10044019347459
        ]
      }
    }
  ]
}